     2              NAVIGATION DATA                         RINEX VERSION / TYPE
CCRINEXN V1.6.0 UX  CDDIS               14-APR-22 19:31     PGM / RUN BY / DATE 
IGS BROADCAST EPHEMERIS FILE                                COMMENT             
    0.1583D-07  0.1490D-07 -0.1192D-06 -0.1192D-06          ION ALPHA           
    0.1065D+06  0.6554D+05 -0.1966D+06 -0.1966D+06          ION BETA            
   -0.558793544769D-08-0.159872115546D-13   503808     2205 DELTA-UTC: A0,A1,T,W
    18                                                      LEAP SECONDS        
                                                            END OF HEADER       
14 22  4 13  4  0  0.0-0.102074816823D-03-0.284217094304D-11 0.000000000000D+00
    0.152000000000D+03-0.106250000000D+01 0.489341811622D-08-0.243179038110D+01
    0.745058059692D-08 0.169891142286D-02 0.470504164696D-05 0.515364965820D+04
    0.273600000000D+06-0.242143869400D-07 0.130207459156D+01 0.745058059692D-08
    0.952854703526D+00 0.286500000000D+03 0.305057433651D+01-0.835177645644D-08
   -0.101075638777D-09 0.100000000000D+01 0.220500000000D+04 0.000000000000D+00
    0.200000000000D+01 0.000000000000D+00-0.745058059692D-08 0.920000000000D+03
    0.266418000000D+06 0.400000000000D+01 0.000000000000D+00 0.000000000000D+00
15 22  4 13  4  0  0.0-0.693579204381D-04 0.295585778076D-11 0.000000000000D+00
    0.890000000000D+02-0.837500000000D+02 0.530522098375D-08 0.749036175906D-01
   -0.413134694099D-05 0.139880921924D-01 0.959634780884D-05 0.515377322197D+04
    0.273600000000D+06-0.104308128357D-06-0.957746385593D+00 0.152736902237D-06
    0.930074219267D+00 0.176625000000D+03 0.108447208553D+01-0.868500462245D-08
   -0.375372778640D-09 0.100000000000D+01 0.220500000000D+04 0.000000000000D+00
    0.200000000000D+01 0.000000000000D+00-0.107102096081D-07 0.890000000000D+02
    0.266474000000D+06 0.400000000000D+01 0.000000000000D+00 0.000000000000D+00
16 22  4 13  4  0  0.0-0.491079874337D-03-0.386535248253D-11 0.000000000000D+00
    0.117000000000D+03-0.790625000000D+01 0.463483591666D-08 0.195968672468D+01
   -0.562518835068D-06 0.127796970773D-01 0.479258596897D-05 0.515362568855D+04
    0.273600000000D+06-0.212341547012D-06 0.135288236551D+01-0.100582838059D-06
    0.969338255869D+00 0.295687500000D+03 0.724832839969D+00-0.823891461244D-08
   -0.237152735506D-09 0.100000000000D+01 0.220500000000D+04 0.000000000000D+00
    0.282842707634D+01 0.000000000000D+00-0.102445483208D-07 0.117000000000D+03
    0.266468000000D+06 0.400000000000D+01 0.000000000000D+00 0.000000000000D+00
17 22  4 13  4  0  0.0 0.599664170295D-03 0.488853402203D-11 0.000000000000D+00
    0.430000000000D+02-0.155625000000D+02 0.390694845437D-08 0.965785816787D+00
   -0.806525349617D-06 0.134513261728D-01 0.100657343864D-04 0.515379197502D+04
    0.273600000000D+06-0.193715095520D-06 0.237248172478D+01-0.178813934326D-06
    0.979249811125D+00 0.194593750000D+03-0.149064851216D+01-0.794354516626D-08
   -0.203222750758D-09 0.100000000000D+01 0.220500000000D+04 0.000000000000D+00
    0.280000000000D+01 0.000000000000D+00-0.111758708954D-07 0.430000000000D+02
    0.266418000000D+06 0.400000000000D+01 0.000000000000D+00 0.000000000000D+00
18 22  4 13  4  0  0.0 0.196843408048D-03-0.943600753089D-11 0.000000000000D+00
    0.219000000000D+03 0.837500000000D+02 0.432732310752D-08-0.886759592182D+00
    0.425055623054D-05 0.219647004269D-02 0.776350498199D-05 0.515361004639D+04
    0.273600000000D+06 0.391155481338D-07-0.290592970558D+01-0.186264514923D-07
    0.971480632102D+00 0.233187500000D+03 0.306265428453D+01-0.807712215884D-08
    0.498592196938D-09 0.100000000000D+01 0.220500000000D+04 0.000000000000D+00
    0.200000000000D+01 0.000000000000D+00-0.838190317154D-08 0.219000000000D+03
    0.266475000000D+06 0.400000000000D+01 0.000000000000D+00 0.000000000000D+00
19 22  4 13  4  0  0.0 0.143669545651D-03 0.500222085975D-11 0.000000000000D+00
    0.130000000000D+02-0.375000000000D+00 0.385051753237D-08-0.288962740440D+01
    0.745058059692D-08 0.913102645427D-02 0.100936740637D-04 0.515369790459D+04
    0.273600000000D+06 0.372529029846D-07 0.241730845471D+01 0.132247805595D-06
    0.978080168622D+00 0.186375000000D+03 0.203491761753D+01-0.757495838456D-08
   -0.145363197818D-09 0.100000000000D+01 0.220500000000D+04 0.000000000000D+00
    0.200000000000D+01 0.000000000000D+00-0.158324837685D-07 0.130000000000D+02
    0.266418000000D+06 0.400000000000D+01 0.000000000000D+00 0.000000000000D+00
20 22  4 13  4  0  0.0 0.515852589160D-03-0.227373675443D-12 0.000000000000D+00
    0.460000000000D+02-0.120625000000D+02 0.552130141294D-08-0.164714585458D+00
   -0.556930899620D-06 0.486286042724D-02 0.276230275631D-05 0.515354551125D+04
    0.273600000000D+06 0.130385160446D-07-0.203486084753D+01-0.409781932831D-07
    0.942264123140D+00 0.316375000000D+03-0.312606554246D+01-0.877000816318D-08
    0.978612191697D-10 0.100000000000D+01 0.220500000000D+04 0.000000000000D+00
    0.200000000000D+01 0.000000000000D+00-0.838190317154D-08 0.460000000000D+02
    0.270936000000D+06 0.400000000000D+01 0.000000000000D+00 0.000000000000D+00
21 22  4 13  4  0  0.0 0.160390976816D-03 0.341060513165D-12 0.000000000000D+00
    0.510000000000D+02 0.549375000000D+02 0.461876381862D-08 0.120169636807D+01
    0.260025262833D-05 0.244101451244D-01 0.825338065624D-05 0.515376535225D+04
    0.273600000000D+06 0.465661287308D-06-0.300528859554D+01-0.409781932831D-06
    0.960184240556D+00 0.216531250000D+03-0.966823874198D+00-0.809926593836D-08
    0.356800576462D-09 0.100000000000D+01 0.220500000000D+04 0.000000000000D+00
    0.200000000000D+01 0.000000000000D+00-0.102445483208D-07 0.510000000000D+02
    0.266418000000D+06 0.400000000000D+01 0.000000000000D+00 0.000000000000D+00
22 22  4 13  4  0  0.0 0.242515001446D-03 0.602540239925D-11 0.000000000000D+00
    0.120000000000D+03-0.777187500000D+02 0.440411202037D-08 0.884444401437D+00
   -0.395253300667D-05 0.132271326147D-01 0.114850699902D-04 0.515368603325D+04
    0.273600000000D+06-0.204890966415D-06-0.748440942335D+00 0.372529029846D-08
    0.961449004919D+00 0.165468750000D+03-0.185966852533D+01-0.814819654795D-08
   -0.326442169055D-09 0.100000000000D+01 0.220500000000D+04 0.000000000000D+00
    0.200000000000D+01 0.000000000000D+00-0.977888703346D-08 0.120000000000D+03
    0.266418000000D+06 0.400000000000D+01 0.000000000000D+00 0.000000000000D+00
23 22  4 13  4  0  0.0-0.145230442285D-04-0.284217094304D-11 0.000000000000D+00
    0.180000000000D+02-0.335312500000D+02 0.488663211927D-08-0.192039266461D+01
   -0.170059502125D-05 0.204422767274D-02 0.289455056190D-05 0.515370194435D+04
    0.273600000000D+06-0.130385160446D-07-0.190650793064D+01-0.540167093277D-07
    0.967805212812D+00 0.328062500000D+03 0.300240532884D+01-0.846392398498D-08
   -0.453590322429D-10 0.100000000000D+01 0.220500000000D+04 0.000000000000D+00
    0.200000000000D+01 0.000000000000D+00-0.838190317154D-08 0.530000000000D+03
    0.266449000000D+06 0.400000000000D+01 0.000000000000D+00 0.000000000000D+00
24 22  4 13  4  0  0.0 0.257262494415D-03-0.500222085975D-11 0.000000000000D+00
    0.620000000000D+02 0.494687500000D+02 0.511557022689D-08-0.868178976031D+00
    0.258721411228D-05 0.124118382810D-01 0.955164432526D-05 0.515369270706D+04
    0.273600000000D+06 0.180676579475D-06 0.137593048331D+00 0.284984707832D-06
    0.934826887544D+00 0.182000000000D+03 0.812598515236D+00-0.842927968476D-08
    0.245367363393D-09 0.100000000000D+01 0.220500000000D+04 0.000000000000D+00
    0.200000000000D+01 0.000000000000D+00 0.232830643654D-08 0.620000000000D+02
    0.271688000000D+06 0.400000000000D+01 0.000000000000D+00 0.000000000000D+00
25 22  4 13  4  0  0.0 0.311244744807D-03 0.500222085975D-11 0.000000000000D+00
    0.850000000000D+02 0.193750000000D+01 0.480377152494D-08-0.275642883031D+01
    0.134110450745D-06 0.105579326628D-01 0.428035855293D-05 0.515368009186D+04
    0.273600000000D+06 0.596046447754D-07 0.125682890383D+01-0.577419996262D-07
    0.956935558859D+00 0.294437500000D+03 0.998500290151D+00-0.814998233662D-08
   -0.832177520677D-10 0.100000000000D+01 0.220500000000D+04 0.000000000000D+00
    0.200000000000D+01 0.000000000000D+00 0.558793544769D-08 0.850000000000D+02
    0.266477000000D+06 0.400000000000D+01 0.000000000000D+00 0.000000000000D+00
27 22  4 13  4  0  0.0 0.181678216904D-03 0.932232069317D-11 0.000000000000D+00
    0.260000000000D+02-0.170625000000D+02 0.405624038727D-08 0.104541675321D+01
   -0.895932316780D-06 0.105064298259D-01 0.106412917376D-04 0.515365686798D+04
    0.273600000000D+06-0.145286321640D-06 0.230961917670D+01 0.670552253723D-07
    0.972748132121D+00 0.181468750000D+03 0.666391022592D+00-0.791354391658D-08
   -0.410374236591D-09 0.100000000000D+01 0.220500000000D+04 0.000000000000D+00
    0.200000000000D+01 0.000000000000D+00 0.139698386192D-08 0.260000000000D+02
    0.268309000000D+06 0.400000000000D+01 0.000000000000D+00 0.000000000000D+00
28 22  4 13  4  0  0.0 0.371837522835D-03-0.363797880709D-11 0.000000000000D+00
    0.119000000000D+03-0.846875000000D+01 0.455340395327D-08 0.149451180963D+01
   -0.679865479469D-06 0.166459514294D-01 0.461935997009D-05 0.515368197823D+04
    0.273600000000D+06 0.262632966042D-06 0.135633210335D+01-0.316649675369D-06
    0.968498932954D+00 0.292312500000D+03-0.128223340377D+01-0.814283918194D-08
   -0.165364030933D-09 0.100000000000D+01 0.220500000000D+04 0.000000000000D+00
    0.400000000000D+01 0.630000000000D+02-0.111758708954D-07 0.119000000000D+03
    0.266418000000D+06 0.400000000000D+01 0.000000000000D+00 0.000000000000D+00
